{
"type": "FeatureCollection",
"name": "puntos_neuquen",
"crs": { "type": "name", "properties": { "name": "urn:ogc:def:crs:OGC:1.3:CRS84" } },
"features": [
{ "type": "Feature", "properties": { "gid": 2583, "entidad": 3.0, "objeto": "Dique", "fna": "Dique Punto Unido", "gna": "Dique", "nam": "Punto Unido", "fun": -1.0, "fdc": "IGN/ ina.gob.ar.", "sag": "IGN" }, "geometry": { "type": "Point", "coordinates": [ -67.765643030999968, -37.722822119999933 ] } },
{ "type": "Feature", "properties": { "gid": 2965, "entidad": 3.0, "objeto": "Dique", "fna": "Dique Blas Brisoli", "gna": "Dique", "nam": "Blas Brisoli", "fun": 6.0, "fdc": "IGN/www.ide.irrigacion.gov.ar", "sag": "IGN" }, "geometry": { "type": "Point", "coordinates": [ -69.643865476999963, -35.544898092999972 ] } },
{ "type": "Feature", "properties": { "gid": 3428, "entidad": 3.0, "objeto": "Dique", "fna": "Dique Piedra del Águila", "gna": "Dique", "nam": "Piedra del Águila", "fun": -1.0, "fdc": "Esri-Word_Imagery/ECyT-ar/IGN01", "sag": "IGN" }, "geometry": { "type": "Point", "coordinates": [ -69.991753, -40.190325 ] } },
{ "type": "Feature", "properties": { "gid": 3436, "entidad": 3.0, "objeto": "Dique", "fna": "Dique El Chocón", "gna": "Dique", "nam": "El Chocón", "fun": 6.0, "fdc": "IGN01/IGN04/IGN Mapa Provincial Neuquén/Dir. Geografía IGN", "sag": "IGN" }, "geometry": { "type": "Point", "coordinates": [ -68.757944754999983, -39.265804772999957 ] } },
{ "type": "Feature", "properties": { "gid": 3454, "entidad": 3.0, "objeto": "Dique", "fna": null, "gna": null, "nam": null, "fun": 6.0, "fdc": "Esri-World_Imagery", "sag": "IGN" }, "geometry": { "type": "Point", "coordinates": [ -69.459278625999957, -39.767864777999932 ] } },
{ "type": "Feature", "properties": { "gid": 3513, "entidad": 3.0, "objeto": "Dique", "fna": null, "gna": null, "nam": null, "fun": 6.0, "fdc": "ESRI-World_Imagery 2010", "sag": "IGN" }, "geometry": { "type": "Point", "coordinates": [ -70.262701769999978, -36.492254866999929 ] } },
{ "type": "Feature", "properties": { "gid": 3519, "entidad": 3.0, "objeto": "Dique", "fna": "Dique Alicurá", "gna": "Dique", "nam": "Alicurá", "fun": 6.0, "fdc": "Esri-Word_Imagery/IGN04/IGN Mapa Pcial.", "sag": "IGN" }, "geometry": { "type": "Point", "coordinates": [ -70.752608011999939, -40.585655821999978 ] } },
{ "type": "Feature", "properties": { "gid": 3556, "entidad": 3.0, "objeto": "Dique", "fna": "Dique Mari Menuco", "gna": "Dique", "nam": "Mari Menuco", "fun": 6.0, "fdc": "IGN04/ORSEP", "sag": "IGN" }, "geometry": { "type": "Point", "coordinates": [ -68.690831127999957, -38.580711119999933 ] } },
{ "type": "Feature", "properties": { "gid": 3573, "entidad": 3.0, "objeto": "Dique", "fna": null, "gna": null, "nam": null, "fun": -1.0, "fdc": "Esri-world_imagery-2010", "sag": "IGN" }, "geometry": { "type": "Point", "coordinates": [ -68.140029689999949, -38.726790195999968 ] } },
{ "type": "Feature", "properties": { "gid": 3574, "entidad": 3.0, "objeto": "Dique", "fna": null, "gna": null, "nam": null, "fun": -1.0, "fdc": "Esri-world_imagery-2010", "sag": "IGN" }, "geometry": { "type": "Point", "coordinates": [ -68.135810638999942, -38.729460753999945 ] } },
{ "type": "Feature", "properties": { "gid": 3575, "entidad": 3.0, "objeto": "Dique", "fna": null, "gna": null, "nam": null, "fun": -1.0, "fdc": "Esri-world_imagery-2010", "sag": "IGN" }, "geometry": { "type": "Point", "coordinates": [ -68.131507113999987, -38.732210448999979 ] } },
{ "type": "Feature", "properties": { "gid": 3595, "entidad": 3.0, "objeto": "Dique", "fna": null, "gna": null, "nam": null, "fun": 6.0, "fdc": "Esri World Imagery", "sag": "IGN" }, "geometry": { "type": "Point", "coordinates": [ -69.761765346999937, -36.180533373999936 ] } },
{ "type": "Feature", "properties": { "gid": 3598, "entidad": 3.0, "objeto": "Dique", "fna": null, "gna": null, "nam": null, "fun": -1.0, "fdc": "Esri World Imagery", "sag": "IGN" }, "geometry": { "type": "Point", "coordinates": [ -70.837362111999937, -41.072974323999972 ] } }
]
}
